NORAD_CAT_ID,OBJECT_NAME,OBJECT_TYPE,EPOCH,MEAN_MOTION,ECCENTRICITY,INCLINATION,RA_OF_ASC_NODE,ARG_OF_PERICENTER,MEAN_ANOMALY,BSTAR,MEAN_MOTION_DOT,MEAN_MOTION_DDOT,TLE_LINE0,TLE_LINE1,TLE_LINE2,SEMIMAJOR_AXIS,PERIOD,APOGEE,PERIGEE,DECAYED
53032.0,STARLINK-4115,PAYLOAD,2023-01-03 17:25:54,15.08829825,0.0001896999999999,53.2181,255.8814,37.9859,322.1267,0.00013842,1.915e-05,0.0,0 STARLINK-4115,1 53032U 22076AY  23003.72632997  .00001915  00000-0  13842-3 0  9990,2 53032  53.2181 255.8814 0001897  37.9859 322.1267 15.08829825 28195,6917.911,95.438,541.089,538.464,0.0
53032.0,STARLINK-4115,PAYLOAD,2023-01-04 01:22:50,15.08837557,0.0001916,53.2184,254.3948,39.3648,320.7483,0.00017546,2.505e-05,0.0,0 STARLINK-4115,1 53032U 22076AY  23004.05752568  .00002505  00000-0  17546-3 0  9995,2 53032  53.2184 254.3948 0001916  39.3648 320.7483 15.08837557 28245,6917.888000000001,95.438,541.078,538.427,0.0
53032.0,STARLINK-4115,PAYLOAD,2023-01-04 09:19:45,15.08849244,0.0001940999999999,53.2183,252.9079,39.3525,320.7608,0.00022591,3.3100000000000005e-05,0.0,0 STARLINK-4115,1 53032U 22076AY  23004.38871834  .00003310  00000-0  22591-3 0  9990,2 53032  53.2183 252.9079 0001941  39.3525 320.7608 15.08849244 28295,6917.852,95.437,541.06,538.374,0.0
53032.0,STARLINK-4115,PAYLOAD,2023-01-05 01:13:36,15.08844631,0.0001927,53.2184,249.9347,40.2308,319.8827,0.00030118,4.509e-05,0.0,0 STARLINK-4115,1 53032U 22076AY  23005.05111975  .00004509  00000-0  30118-3 0  9993,2 53032  53.2184 249.9347 0001927  40.2308 319.8827 15.08844631 28392,6917.866,95.437,541.064,538.398,0.0
53032.0,STARLINK-4115,PAYLOAD,2023-01-05 15:32:04,15.08857057,0.0001996,53.2185,247.2589,46.7835,313.3323,0.00027014,4.016e-05,0.0,0 STARLINK-4115,1 53032U 22076AY  23005.64727168  .00004016  00000-0  27014-3 0  9999,2 53032  53.2185 247.2589 0001996  46.7835 313.3323 15.08857057 28019,6917.828,95.436,541.0740000000002,538.312,0.0
53032.0,STARLINK-4115,PAYLOAD,2023-01-06 09:01:20,15.08825219,0.0002051,53.2174,243.9878,41.9456,318.1693,-0.0002963,-4.999e-05,0.0,0 STARLINK-4115,1 53032U 22076AY  23006.37592605 -.00004999  00000-0 -29630-3 0  9994,2 53032  53.2174 243.9878 0002051  41.9456 318.1693 15.08825219 28591,6917.926,95.438,541.2090000000002,538.372,0.0
53032.0,STARLINK-4115,PAYLOAD,2023-01-06 15:22:53,15.08829902,0.000223,53.2193,242.7965,47.8718,312.2464,-0.00013888,-2.497e-05,0.0,0 STARLINK-4115,1 53032U 22076AY  23006.64089451 -.00002497  00000-0 -13888-3 0  9993,2 53032  53.2193 242.7965 0002230  47.8718 312.2464 15.08829902 28168,6917.911,95.438,541.319,538.234,0.0
53032.0,STARLINK-4115,PAYLOAD,2023-01-07 00:55:11,15.0884083,0.000202,53.2176,241.0135,42.8563,317.2586,-0.00011485,-2.116e-05,0.0,0 STARLINK-4115,1 53032U 22076AY  23007.03832715 -.00002116  00000-0 -11485-3 0  9995,2 53032  53.2176 241.0135 0002020  42.8563 317.2586 15.08840830 28691,6917.8780000000015,95.438,541.14,538.345,0.0
53032.0,STARLINK-4115,PAYLOAD,2023-01-07 08:52:06,15.08846792,0.0002105,53.218,239.527,44.0287,316.0873,-5.6448e-05,-1.187e-05,0.0,0 STARLINK-4115,1 53032U 22076AY  23007.36952163 -.00001187  00000-0 -56448-4 0  9997,2 53032  53.2180 239.5270 0002105  44.0287 316.0873 15.08846792 28744,6917.86,95.437,541.181,538.268,0.0
53032.0,STARLINK-4115,PAYLOAD,2023-01-07 21:35:12,15.08835369,0.0002233,53.2179,237.1488,40.634,319.4819,4.9662e-05,5.02e-06,0.0,0 STARLINK-4115,1 53032U 22076AY  23007.89944732  .00000502  00000-0  49662-4 0  9996,2 53032  53.2179 237.1488 0002233  40.6340 319.4819 15.08835369 28825,6917.895,95.438,541.304,538.215,0.0
53032.0,STARLINK-4115,PAYLOAD,2023-01-08 08:42:54,15.08833129,0.0002112,53.2179,235.0671,45.7439,314.3727,0.00015042,2.106e-05,0.0,0 STARLINK-4115,1 53032U 22076AY  23008.36312966  .00002106  00000-0  15042-3 0  9993,2 53032  53.2179 235.0671 0002112  45.7439 314.3727 15.08833129 28427,6917.901,95.438,541.227,538.305,0.0
53032.0,STARLINK-4115,PAYLOAD,2023-01-08 21:26:00,15.08830597,0.0002226,53.2182,232.6878,49.1934,310.9251,0.00015917,2.245e-05,0.0,0 STARLINK-4115,1 53032U 22076AY  23008.89305686  .00002245  00000-0  15917-3 0  9997,2 53032  53.2182 232.6878 0002226  49.1934 310.9251 15.08830597 28506,6917.9090000000015,95.438,541.314,538.234,0.0
53032.0,STARLINK-4115,PAYLOAD,2023-01-09 00:36:46,15.08830244,0.0002595,53.2162,232.092,59.25899999999999,300.8657,8.9564e-05,1.137e-05,0.0,0 STARLINK-4115,1 53032U 22076AY  23009.02553936  .00001137  00000-0  89564-4 0  9995,2 53032  53.2162 232.0920 0002595  59.2590 300.8657 15.08830244 28995,6917.91,95.438,541.57,537.98,0.0
53032.0,STARLINK-4115,PAYLOAD,2023-01-09 21:16:45,15.08850779,0.0002315,53.2183,228.2263,60.1911,299.9311,0.00021674,3.164e-05,0.0,0 STARLINK-4115,1 53032U 22076AY  23009.88663958  .00003164  00000-0  21674-3 0  9994,2 53032  53.2183 228.2263 0002315  60.1911 299.9311 15.08850779 28656,6917.847,95.437,541.314,538.111,0.0
53032.0,STARLINK-4115,PAYLOAD,2023-01-10 06:49:05,15.08842794,0.000179,53.2181,226.4432,36.9793,323.1322,0.00010096,1.319e-05,0.0,0 STARLINK-4115,1 53032U 22076AY  23010.28408569  .00001319  00000-0  10096-3 0  9991,2 53032  53.2181 226.4432 0001790  36.9793 323.1322 15.08842794 29186,6917.871999999999,95.437,540.975,538.499,0.0
53032.0,STARLINK-4115,PAYLOAD,2023-01-11 00:18:19,15.08834463,0.0001822,53.2177,223.1727,37.7218,322.3902,0.00016345,2.314e-05,0.0,0 STARLINK-4115,1 53032U 22076AY  23011.01273020  .00002314  00000-0  16345-3 0  9994,2 53032  53.2177 223.1727 0001822  37.7218 322.3902 15.08834463 29290,6917.897,95.438,541.023,538.502,0.0
53032.0,STARLINK-4115,PAYLOAD,2023-01-11 06:39:51,15.08868805,0.0001606,53.2167,221.9832,36.4695,323.6406,-0.00041862,-6.95e-05,0.0,0 STARLINK-4115,1 53032U 22076AY  23011.27767819 -.00006950  00000-0 -41862-3 0  9990,2 53032  53.2167 221.9832 0001606  36.4695 323.6406 15.08868805 29332,6917.792,95.436,540.768,538.5459999999998,0.0
53032.0,STARLINK-4115,PAYLOAD,2023-01-11 20:58:20,15.08841728,0.0001761999999999,53.2166,219.3067,37.2062,322.9052,7.8316e-05,9.59e-06,0.0,0 STARLINK-4115,1 53032U 22076AY  23011.87384435  .00000959  00000-0  78316-4 0  9991,2 53032  53.2166 219.3067 0001762  37.2062 322.9052 15.08841728 28953,6917.875,95.437,540.9590000000002,538.521,0.0
53032.0,STARLINK-4115,PAYLOAD,2023-01-12 00:09:06,15.08843389,0.0001861,53.2176,218.7116,39.9878,320.125,0.00010263,1.346e-05,0.0,0 STARLINK-4115,1 53032U 22076AY  23012.00632280  .00001346  00000-0  10263-3 0  9998,2 53032  53.2176 218.7116 0001861  39.9878 320.1250 15.08843389 29446,6917.87,95.437,541.0219999999998,538.448,0.0
53032.0,STARLINK-4115,PAYLOAD,2023-01-12 06:30:40,15.08827733,0.0002191,53.2181,217.5224,50.3719,309.7466,-3.7395e-05,-8.83e-06,0.0,0 STARLINK-4115,1 53032U 22076AY  23012.27129793 -.00000883  00000-0 -37395-4 0  9990,2 53032  53.2181 217.5224 0002191  50.3719 309.7466 15.08827733 29488,6917.9180000000015,95.438,541.299,538.2669999999998,0.0
53032.0,STARLINK-4115,PAYLOAD,2023-01-12 22:24:32,15.08823292,0.0002112,53.2193,214.5488,48.549,311.5684,-2.0859e-05,-6.2e-06,0.0,0 STARLINK-4115,1 53032U 22076AY  23012.93370616 -.00000620  00000-0 -20859-4 0  9991,2 53032  53.2193 214.5488 0002112  48.5490 311.5684 15.08823292 29117,6917.931,95.439,541.258,538.335,0.0
53032.0,STARLINK-4115,PAYLOAD,2023-01-13 06:21:27,15.08827446,0.0002439,53.22,213.0623,53.4664,306.6552,2.5085e-05,1.11e-06,0.0,0 STARLINK-4115,1 53032U 22076AY  23013.26490692  .00000111  00000-0  25085-4 0  9994,2 53032  53.2200 213.0623 0002439  53.4664 306.6552 15.08827446 29160,6917.919,95.438,541.471,538.096,0.0
53032.0,STARLINK-4115,PAYLOAD,2023-01-13 15:53:50,15.08709254,8.85e-05,53.2161,211.2777,62.1385,297.9697,0.0019409,0.00030626,0.0,0 STARLINK-4115,1 53032U 22076AY  23013.66238498  .00030626  00000-0  19409-2 0  9997,2 53032  53.2161 211.2777 0000885  62.1385 297.9697 15.08709254 29692,6918.28,95.446,540.757,539.533,0.0
53032.0,STARLINK-4115,PAYLOAD,2023-01-13 22:15:19,15.08830661,0.0002438,53.2155,210.0881,58.3588,301.7641,0.00015585,2.192e-05,0.0,0 STARLINK-4115,1 53032U 22076AY  23013.92730518  .00002192  00000-0  15585-3 0  9995,2 53032  53.2155 210.0881 0002438  58.3588 301.7641 15.08830661 29269,6917.909000000001,95.438,541.461,538.087,0.0
53032.0,STARLINK-4115,PAYLOAD,2023-01-14 06:12:14,15.08843825,0.0001742,53.216,208.6028,49.9415,310.1729,1.8785e-05,1.1e-07,0.0,0 STARLINK-4115,1 53032U 22076AY  23014.25849944  .00000011  00000-0  18785-4 0  9990,2 53032  53.2160 208.6028 0001742  49.9415 310.1729 15.08843825 29787,6917.869000000001,95.437,540.939,538.529,0.0
53032.0,STARLINK-4115,PAYLOAD,2023-01-15 12:24:34,15.08840379,0.0002112999999999,53.2145,202.9529,51.3877,308.7304,0.00011103,1.479e-05,0.0,0 STARLINK-4115,1 53032U 22076AY  23015.51706611  .00001479  00000-0  11103-3 0  9998,2 53032  53.2145 202.9529 0002113  51.3877 308.7304 15.08840379 29979,6917.879,95.438,541.206,538.2819999999999,0.0
53032.0,STARLINK-4115,PAYLOAD,2023-01-15 18:46:07,15.08841271,0.0001774,53.2161,201.7631,50.8038,309.3111,0.00010545,1.391e-05,0.0,0 STARLINK-4115,1 53032U 22076AY  23015.78202552  .00001391  00000-0  10545-3 0  9994,2 53032  53.2161 201.7631 0001774  50.8038 309.3111 15.08841271 29541,6917.877,95.437,540.969,538.514,0.0
53032.0,STARLINK-4115,PAYLOAD,2023-01-16 12:15:21,15.08842597,0.0001802,53.2159,198.492,52.3559,307.7596,9.9456e-05,1.295e-05,0.0,0 STARLINK-4115,1 53032U 22076AY  23016.51066539  .00001295  00000-0  99456-4 0  9991,2 53032  53.2159 198.4920 0001802  52.3559 307.7596 15.08842597 29651,6917.871999999999,95.437,540.984,538.491,0.0
53032.0,STARLINK-4115,PAYLOAD,2023-01-16 18:36:53,15.08843965,0.0001847,53.216,197.3021,55.5878,304.5289,7.1191e-05,8.45e-06,0.0,0 STARLINK-4115,1 53032U 22076AY  23016.77562421  .00000845  00000-0  71191-4 0  9996,2 53032  53.2160 197.3021 0001847  55.5878 304.5289 15.08843965 30163,6917.868,95.437,541.011,538.456,0.0
